CCSDS_OEM_VERS = 1.0
CREATION_DATE  = 2017-05-11T11:12:34
ORIGINATOR     = GMAT USER

META_START
OBJECT_NAME          = MOPSSat_alt_35785_km_RAAN_90_031
OBJECT_ID            = SatId
CENTER_NAME          = Earth
REF_FRAME            = EME2000
TIME_SYSTEM          = UTC
START_TIME           = 2017-01-01T00:00:00.000
USEABLE_START_TIME   = 2017-01-01T00:00:00.000
USEABLE_STOP_TIME    = 2017-01-02T00:00:00.000
STOP_TIME            = 2017-01-02T00:00:00.000
INTERPOLATION        = Lagrange
INTERPOLATION_DEGREE = 7 
META_STOP


                                                                                   

2017-01-01T12:40:50.000   7.855293867299762e+03  -4.142123011591196e+04   4.188460403970138e-01   3.021114825959452e+00   5.731185758461277e-01  -9.409522769090342e-05
2017-01-01T12:41:00.000   7.885502924495745e+03  -4.141548791380672e+04   4.179047759060845e-01   3.020696227464283e+00   5.753217720488222e-01  -9.415766125759630e-05
2017-01-01T12:41:10.000   7.915707787358568e+03  -4.140972368132650e+04   4.169628872563403e-01   3.020276022080110e+00   5.775246624254771e-01  -9.422006139436506e-05
2017-01-01T12:41:20.000   7.945908439853891e+03  -4.140393742152981e+04   4.160203747813302e-01   3.019854210029683e+00   5.797272458063254e-01  -9.428242804788266e-05
2017-01-01T12:41:30.000   7.976104865928321e+03  -4.139812913749056e+04   4.150772388157882e-01   3.019430791536880e+00   5.819295210202097e-01  -9.434476116477379e-05
2017-01-01T12:41:40.000   8.006297049601295e+03  -4.139229883228114e+04   4.141334796927900e-01   3.019005766825469e+00   5.841314869012832e-01  -9.440706069181294e-05
2017-01-01T12:41:50.000   8.036484974929233e+03  -4.138644650897776e+04   4.131890977448183e-01   3.018579136119490e+00   5.863331422863970e-01  -9.446932657582891e-05
2017-01-01T12:42:00.000   8.066668625988907e+03  -4.138057217066488e+04   4.122440933043273e-01   3.018150899643600e+00   5.885344860138849e-01  -9.453155876369148e-05
2017-01-01T12:42:10.000   8.096847986841299e+03  -4.137467582044229e+04   4.112984667048728e-01   3.017721057623562e+00   5.907355169209296e-01  -9.459375720222987e-05
2017-01-01T12:42:20.000   8.127023041514494e+03  -4.136875746142709e+04   4.103522182816052e-01   3.017289610286408e+00   5.929362338423133e-01  -9.465592183821525e-05
2017-01-01T12:42:30.000   8.157193773968446e+03  -4.136281709676226e+04   4.094053483724272e-01   3.016856557861051e+00   5.951366356078494e-01  -9.471805261827071e-05
2017-01-01T12:42:40.000   8.187360168186528e+03  -4.135685472959784e+04   4.084578573150999e-01   3.016421900576930e+00   5.973367210490585e-01  -9.478014948906605e-05
2017-01-01T12:42:50.000   8.217522207778471e+03  -4.135087036317182e+04   4.075097454597875e-01   3.015985638669890e+00   5.995364889702113e-01  -9.484221239648366e-05
2017-01-01T12:43:00.000   8.247679876461641e+03  -4.134486400071270e+04   4.065610131538688e-01   3.015547772375085e+00   6.017359381834269e-01  -9.490424128662601e-05
2017-01-01T12:43:10.000   8.277833157882038e+03  -4.133883564547548e+04   4.056116607475785e-01   3.015108301929602e+00   6.039350674956191e-01  -9.496623610544098e-05
2017-01-01T12:43:20.000   8.307982036307922e+03  -4.133278530060320e+04   4.046616885721769e-01   3.014667227562370e+00   6.061338757590853e-01  -9.502819680016762e-05
2017-01-01T12:43:30.000   8.338126495937915e+03  -4.132671296926483e+04   4.037110969617191e-01   3.014224549504211e+00   6.083323618210424e-01  -9.509012331789374e-05
2017-01-01T12:43:40.000   8.368266521057878e+03  -4.132061865462447e+04   4.027598862481342e-01   3.013780267985586e+00   6.105305245350688e-01  -9.515201560588594e-05
2017-01-01T12:43:50.000   8.398402095649932e+03  -4.131450235991720e+04   4.018080567734592e-01   3.013334383242134e+00   6.127283627325920e-01  -9.521387361076406e-05
2017-01-01T12:44:00.000   8.428533203682930e+03  -4.130836408839357e+04   4.008556088807792e-01   3.012886895510628e+00   6.149258752440693e-01  -9.527569727912056e-05
2017-01-01T12:44:10.000   8.458659829112194e+03  -4.130220384331844e+04   3.999025429141951e-01   3.012437805028879e+00   6.171230608989723e-01  -9.533748655751167e-05
2017-01-01T12:44:20.000   8.488781955590453e+03  -4.129602162803312e+04   3.989488592280692e-01   3.011987112040276e+00   6.193199185047031e-01  -9.539924139188627e-05
2017-01-01T12:44:30.000   8.518899566857464e+03  -4.128981744587277e+04   3.979945581746022e-01   3.011534816787756e+00   6.215164468750108e-01  -9.546096172836381e-05
2017-01-01T12:44:40.000   8.549012646586463e+03  -4.128359130019861e+04   3.970396401087181e-01   3.011080919516161e+00   6.237126448187912e-01  -9.552264751292595e-05
2017-01-01T12:44:50.000   8.579121179063734e+03  -4.127734319425744e+04   3.960841053665184e-01   3.010625420461995e+00   6.259085111896522e-01  -9.558429869279319e-05
2017-01-01T12:45:00.000   8.609225148509024e+03  -4.127107313132195e+04   3.951279542868205e-01   3.010168319863645e+00   6.281040448363471e-01  -9.564591521504776e-05
2017-01-01T12:45:10.000   8.639324539229261e+03  -4.126478111465935e+04   3.941711872063002e-01   3.009709617959103e+00   6.302992446139880e-01  -9.570749702694465e-05
2017-01-01T12:45:20.000   8.669419335228131e+03  -4.125846714760981e+04   3.932138044717973e-01   3.009249314991679e+00   6.324941093555704e-01  -9.576904407511893e-05
2017-01-01T12:45:30.000   8.699509520496125e+03  -4.125213123352906e+04   3.922558064312039e-01   3.008787411205819e+00   6.346886378931268e-01  -9.583055630617460e-05
2017-01-01T12:45:40.000   8.729595079010325e+03  -4.124577337578726e+04   3.912971934334297e-01   3.008323906847022e+00   6.368828290577114e-01  -9.589203366668379e-05
2017-01-01T12:45:50.000   8.759675994445719e+03  -4.123939357783296e+04   3.903379658377011e-01   3.007858802166504e+00   6.390766816583460e-01  -9.595347610260101e-05
2017-01-01T12:46:00.000   8.789752250564281e+03  -4.123299184310803e+04   3.893781240010686e-01   3.007392097414992e+00   6.412701945103954e-01  -9.601488356005262e-05
2017-01-01T12:46:10.000   8.819823831058711e+03  -4.122656817508141e+04   3.884176682834118e-01   3.006923792845192e+00   6.434633664241730e-01  -9.607625598502088e-05
2017-01-01T12:46:20.000   8.849890720242462e+03  -4.122012257710184e+04   3.874565990254032e-01   3.006453888701044e+00   6.456561962552629e-01  -9.613759332474084e-05
2017-01-01T12:46:30.000   8.879952902357936e+03  -4.121365505254536e+04   3.864949165705943e-01   3.005982385228482e+00   6.478486828540679e-01  -9.619889552630088e-05
2017-01-01T12:46:40.000   8.910010361755130e+03  -4.120716560477735e+04   3.855326212597204e-01   3.005509282672662e+00   6.500408250788369e-01  -9.626016253700212e-05
2017-01-01T12:46:50.000   8.940063082411172e+03  -4.120065423725383e+04   3.845697134459972e-01   3.005034581285349e+00   6.522326217606250e-01  -9.632139430339433e-05
2017-01-01T12:47:00.000   8.970111048326917e+03  -4.119412095343826e+04   3.836061934825085e-01   3.004558281318854e+00   6.544240717322164e-01  -9.638259077206880e-05
2017-01-01T12:47:10.000   9.000154243438386e+03  -4.118756575682002e+04   3.826420617250179e-01   3.004080383027373e+00   6.566151738216672e-01  -9.644375188948397e-05
2017-01-01T12:47:20.000   9.030192651641182e+03  -4.118098865091080e+04   3.816773185312463e-01   3.003600886666741e+00   6.588059268540858e-01  -9.650487760199730e-05
2017-01-01T12:47:30.000   9.060226256820113e+03  -4.117438963923686e+04   3.807119642598720e-01   3.003119792493841e+00   6.609963296537914e-01  -9.656596785594388e-05
2017-01-01T12:47:40.000   9.090255042860072e+03  -4.116776872533659e+04   3.797459992701890e-01   3.002637100766451e+00   6.631863810451101e-01  -9.662702259765122e-05
2017-01-01T12:47:50.000   9.120278993753589e+03  -4.116112591273778e+04   3.787794239186726e-01   3.002152811741578e+00   6.653760798602182e-01  -9.668804177367902e-05
2017-01-01T12:48:00.000   9.150298093529056e+03  -4.115446120497235e+04   3.778122385612558e-01   3.001666925676527e+00   6.675654249339054e-01  -9.674902533065210e-05
2017-01-01T12:48:10.000   9.180312326250774e+03  -4.114777460557669e+04   3.768444435533371e-01   3.001179442828926e+00   6.697544151035811e-01  -9.680997321526817e-05
2017-01-01T12:48:20.000   9.210321676090318e+03  -4.114106611807462e+04   3.758760392474469e-01   3.000690363455501e+00   6.719430492144792e-01  -9.687088537442234e-05
2017-01-01T12:48:30.000   9.240326127219389e+03  -4.113433574600225e+04   3.749070259967280e-01   3.000199687813863e+00   6.741313261118392e-01  -9.693176175500950e-05
2017-01-01T12:48:40.000   9.270325663798996e+03  -4.112758349291034e+04   3.739374041552894e-01   2.999707416162694e+00   6.763192446401233e-01  -9.699260230389580e-05
2017-01-01T12:48:50.000   9.300320269949298e+03  -4.112080936236974e+04   3.729671740791328e-01   2.999213548762147e+00   6.785068036408122e-01  -9.705340696787455e-05
2017-01-01T12:49:00.000   9.330309929726021e+03  -4.111401335797841e+04   3.719963361269759e-01   2.998718085874348e+00   6.806940019506881e-01  -9.711417569360179e-05
2017-01-01T12:49:10.000   9.360294627208485e+03  -4.110719548334085e+04   3.710248906573760e-01   2.998221027761902e+00   6.828808384082533e-01  -9.717490842778043e-05
2017-01-01T12:49:20.000   9.390274346105030e+03  -4.110035574215998e+04   3.700528380415922e-01   2.997722374694588e+00   6.850673118249533e-01  -9.723560511634478e-05
2017-01-01T12:49:30.000   9.420249070231312e+03  -4.109349413812624e+04   3.690801786480138e-01   2.997222126941280e+00   6.872534210200603e-01  -9.729626570544586e-05
2017-01-01T12:49:40.000   9.450218783332401e+03  -4.108661067495851e+04   3.681069128479441e-01   2.996720284772925e+00   6.894391648076971e-01  -9.735689014108485e-05
2017-01-01T12:49:50.000   9.480183469772195e+03  -4.107970535624614e+04   3.671330409932198e-01   2.996216848451024e+00   6.916245420471202e-01  -9.741747837052726e-05
